STARLINK-4782           
1 53933U 22119AZ  26134.37652039  .00000087  00000+0  23583-4 0  9998
2 53933  53.2194   9.0996 0001447  92.3465 267.7693 15.08841399201884
STARLINK-4775           
1 53934U 22119BA  26134.32732270 -.00000178  00000+0  68877-5 0  9998
2 53934  53.2192   4.5113 0001572  93.4515 266.6658 15.08838687201965
STARLINK-5000           
1 53935U 22119BB  26135.33334491  .00479548  00000+0  52198-2 0  9990
2 53935  53.2166 337.5740 0001017  77.2446 234.3179 15.61331338  5905
STARLINK-4791           
1 53936U 22119BC  26133.96665733  .00001495  00000+0  11203-3 0  9999
2 53936  53.2184   5.8156 0001354  97.7492 262.3654 15.08823848201904
YAOGAN-36 01A           
1 53943U 22120A   26135.30908199  .00003656  00000+0  15222-3 0  9991
2 53943  34.9904 131.7085 0003680  53.9416 306.1639 15.23216934202294
YAOGAN-36 01C           
1 53947U 22120E   26135.29895354  .00007887  00000+0  21660-3 0  9994
2 53947  35.0032  89.4964 0005061 224.7699 135.2612 15.36467749202730
SES-20                  
1 53960U 22123A   26134.43966260  .00000000  00000+0  00000+0 0  9993
2 53960   0.0244  56.4584 0001736  29.0792 201.8257  1.00268958 13191
SES-21                  
1 53961U 22123B   26134.95183764  .00000082  00000+0  00000+0 0  9991
2 53961   0.0287  39.9387 0001214 353.2479  51.1674  1.00271562  6883
STARLINK-4633           
1 53964U 22125A   26134.68935671 -.00000312  00000+0 -15349-5 0  9994
2 53964  53.2164 287.9912 0001305  88.5612 271.5530 15.08839376199289
STARLINK-4635           
1 53966U 22125C   26134.68198646  .00000401  00000+0  43260-4 0  9998
2 53966  53.2192 287.9459 0001223  93.4527 266.6606 15.08840400199286
STARLINK-4634           
1 53967U 22125D   26134.81078469  .00000820  00000+0  69592-4 0  9995
2 53967  53.2187 287.3277 0001179  88.7136 271.3991 15.08840767199305
STARLINK-4629           
1 53968U 22125E   26134.79973227  .00000861  00000+0  72157-4 0  9995
2 53968  53.2191 287.2592 0001038  80.6449 279.4660 15.08844985199300
STARLINK-4468           
1 53969U 22125F   26134.80710034 -.00000157  00000+0  81910-5 0  9990
2 53969  53.2184 287.3039 0001142  86.4448 273.6675 15.08836352199300
STARLINK-4567           
1 53970U 22125G   26134.67692458  .00001091  00000+0  86633-4 0  9999
2 53970  53.2173 282.9331 0001270  96.4373 263.6763 15.08839105199368
STARLINK-5156           
1 53973U 22125K   26134.86228678 -.00000233  00000+0  34152-5 0  9990
2 53973  53.2151 286.9402 0001102  99.2006 260.9111 15.08834519199314
STARLINK-5159           
1 53974U 22125L   26134.76473143 -.00000091  00000+0  12368-4 0  9995
2 53974  53.2177 267.1010 0001198  84.8280 275.2849 15.08839613199584
STARLINK-5137           
1 53975U 22125M   26134.69894823 -.00000676  00000+0 -24391-4 0  9999
2 53975  53.2177 282.3710 0001418  93.0557 267.0598 15.08834652199369
STARLINK-5134           
1 53976U 22125N   26134.34895504  .00000468  00000+0  47530-4 0  9996
2 53976  53.2154 269.4818 0001554  84.9711 275.1459 15.08837717199510
STARLINK-5094           
1 53977U 22125P   26133.42572991  .00000641  00000+0  58384-4 0  9999
2 53977  53.2181 288.6214 0001241  91.1345 268.9789 15.08839400199168
STARLINK-5148           
1 53978U 22125Q   26134.66586684  .00000226  00000+0  32314-4 0  9995
2 53978  53.2172 282.8556 0001193  89.1980 270.9149 15.08839930199354
STARLINK-5123           
1 53979U 22125R   26134.67323536  .00000285  00000+0  35982-4 0  9991
2 53979  53.2172 282.9014 0001416  93.5491 266.5663 15.08843924199359
STARLINK-5133           
1 53980U 22125S   26133.45513711  .00000835  00000+0  70550-4 0  9995
2 53980  53.2162 288.1006 0000415   4.0780 356.0216 15.08824206199176
STARLINK-5149           
1 53981U 22125T   26134.64698910  .00000202  00000+0  30753-4 0  9992
2 53981  53.2172 267.8028 0001430  91.6037 268.5119 15.08839245199562
STARLINK-5120           
1 53982U 22125U   26134.80801723  .00000044  00000+0  20884-4 0  9997
2 53982  53.2173 277.3419 0001323  87.5272 272.5872 15.08839934199432
STARLINK-5142           
1 53984U 22125W   26134.68659561 -.00001150  00000+0 -54204-4 0  9990
2 53984  53.2172 278.0044 0001018  89.5653 270.5456 15.08843894199426
STARLINK-5147           
1 53985U 22125X   26134.42900104  .00000670  00000+0  60188-4 0  9997
2 53985  53.2192 279.2429 0000808  87.2142 272.8942 15.08839039199389
STARLINK-5119           
1 53986U 22125Y   26134.37466569 -.00003497  00000+0 -20170-3 0  9992
2 53986  53.2159 268.9286 0001568  95.0163 265.1008 15.08848449199511
STARLINK-5113           
1 53988U 22125AA  26134.81539128  .00000040  00000+0  20597-4 0  9998
2 53988  53.2147 277.3874 0001285  91.2801 268.8338 15.08836924199432
STARLINK-5118           
1 53991U 22125AD  26134.66909268 -.00000197  00000+0  57163-5 0  9995
2 53991  53.2197 267.8632 0001440 106.4994 253.6157 15.08832191199558
STARLINK-5108           
1 53992U 22125AE  26134.80433687  .00000272  00000+0  35190-4 0  9997
2 53992  53.2176 277.3192 0001237  91.9974 268.1160 15.08839625199434
