OBJECT_NAME,OBJECT_ID,EPOCH,MEAN_MOTION,ECCENTRICITY,INCLINATION,RA_OF_ASC_NODE,ARG_OF_PERICENTER,MEAN_ANOMALY,EPHEMERIS_TYPE,CLASSIFICATION_TYPE,NORAD_CAT_ID,ELEMENT_SET_NO,REV_AT_EPOCH,BSTAR,MEAN_MOTION_DOT,MEAN_MOTION_DDOT
STARLINK-4782,2022-119AZ,2026-05-14T09:02:11.361696,15.08841399,.00014474,53.2194,9.0996,92.3465,267.7693,0,U,53933,999,20188,.23583017E-4,.87E-6,0
STARLINK-4775,2022-119BA,2026-05-14T07:51:20.681280,15.08838687,.00015729,53.2192,4.5113,93.4515,266.6658,0,U,53934,999,20196,.6887688E-5,-.178E-5,0
STARLINK-5000,2022-119BB,2026-05-15T08:00:01.000224,15.61331338,.00010178,53.2166,337.5740,77.2446,234.3179,0,U,53935,999,590,.52198041E-2,.479548E-2,0
STARLINK-4791,2022-119BC,2026-05-13T23:11:59.193312,15.08823848,.00013546,53.2184,5.8156,97.7492,262.3654,0,U,53936,999,20190,.11203018E-3,.1495E-4,0
YAOGAN-36 01A,2022-120A,2026-05-15T07:25:04.683936,15.23216934,.00036808,34.9904,131.7085,53.9416,306.1639,0,U,53943,999,20229,.15221746E-3,.3656E-4,0
YAOGAN-36 01C,2022-120E,2026-05-15T07:10:29.585856,15.36467749,.00050616,35.0032,89.4964,224.7699,135.2612,0,U,53947,999,20273,.21659528E-3,.7887E-4,0
SES-20,2022-123A,2026-05-14T10:33:06.848640,1.00268958,.00017366,0.0244,56.4584,29.0792,201.8257,0,U,53960,999,1319,0,0,0
SES-21,2022-123B,2026-05-14T22:50:38.772096,1.00271562,.00012143,0.0287,39.9387,353.2479,51.1674,0,U,53961,999,688,0,.82E-6,0
STARLINK-4633,2022-125A,2026-05-14T16:32:40.419744,15.08839376,.00013051,53.2164,287.9912,88.5612,271.5530,0,U,53964,999,19928,-.1534937E-5,-.312E-5,0
STARLINK-4635,2022-125C,2026-05-14T16:22:03.630144,15.08840400,.00012238,53.2192,287.9459,93.4527,266.6606,0,U,53966,999,19928,.43260402E-4,.401E-5,0
STARLINK-4634,2022-125D,2026-05-14T19:27:31.797216,15.08840767,.00011793,53.2187,287.3277,88.7136,271.3991,0,U,53967,999,19930,.69591835E-4,.82E-5,0
STARLINK-4629,2022-125E,2026-05-14T19:11:36.868128,15.08844985,.00010384,53.2191,287.2592,80.6449,279.4660,0,U,53968,999,19930,.72156555E-4,.861E-5,0
STARLINK-4468,2022-125F,2026-05-14T19:22:13.469376,15.08836352,.00011423,53.2184,287.3039,86.4448,273.6675,0,U,53969,999,19930,.8191043E-5,-.157E-5,0
STARLINK-4567,2022-125G,2026-05-14T16:14:46.283712,15.08839105,.00012707,53.2173,282.9331,96.4373,263.6763,0,U,53970,999,19936,.86632872E-4,.1091E-4,0
STARLINK-5156,2022-125K,2026-05-14T20:41:41.577792,15.08834519,.00011022,53.2151,286.9402,99.2006,260.9111,0,U,53973,999,19931,.3415239E-5,-.233E-5,0
STARLINK-5159,2022-125L,2026-05-14T18:21:12.795552,15.08839613,.00011989,53.2177,267.1010,84.8280,275.2849,0,U,53974,999,19958,.12367752E-4,-.91E-6,0
STARLINK-5137,2022-125M,2026-05-14T16:46:29.127072,15.08834652,.00014184,53.2177,282.3710,93.0557,267.0598,0,U,53975,999,19936,-.2439071E-4,-.676E-5,0
STARLINK-5134,2022-125N,2026-05-14T08:22:29.715456,15.08837717,.00015544,53.2154,269.4818,84.9711,275.1459,0,U,53976,999,19951,.47529526E-4,.468E-5,0
STARLINK-5094,2022-125P,2026-05-13T10:13:03.064224,15.08839400,.0001241,53.2181,288.6214,91.1345,268.9789,0,U,53977,999,19916,.58384029E-4,.641E-5,0
STARLINK-5148,2022-125Q,2026-05-14T15:58:50.894976,15.08839930,.00011934,53.2172,282.8556,89.1980,270.9149,0,U,53978,999,19935,.32314028E-4,.226E-5,0
STARLINK-5123,2022-125R,2026-05-14T16:09:27.535104,15.08843924,.0001416,53.2172,282.9014,93.5491,266.5663,0,U,53979,999,19935,.3598217E-4,.285E-5,0
STARLINK-5133,2022-125S,2026-05-13T10:55:23.846304,15.08824206,.0000415,53.2162,288.1006,4.0780,356.0216,0,U,53980,999,19917,.70549697E-4,.835E-5,0
STARLINK-5149,2022-125T,2026-05-14T15:31:39.858240,15.08839245,.00014309,53.2172,267.8028,91.6037,268.5119,0,U,53981,999,19956,.30752881E-4,.202E-5,0
STARLINK-5120,2022-125U,2026-05-14T19:23:32.688672,15.08839934,.0001323,53.2173,277.3419,87.5272,272.5872,0,U,53982,999,19943,.20883607E-4,.44E-6,0
STARLINK-5142,2022-125W,2026-05-14T16:28:41.860704,15.08843894,.0001018,53.2172,278.0044,89.5653,270.5456,0,U,53984,999,19942,-.54204233E-4,-.115E-4,0
STARLINK-5147,2022-125X,2026-05-14T10:17:45.689856,15.08839039,.0000808,53.2192,279.2429,87.2142,272.8942,0,U,53985,999,19938,.60188455E-4,.67E-5,0
STARLINK-5119,2022-125Y,2026-05-14T08:59:31.115616,15.08848449,.00015685,53.2159,268.9286,95.0163,265.1008,0,U,53986,999,19951,-.20169602E-3,-.3497E-4,0
STARLINK-5113,2022-125AA,2026-05-14T19:34:09.806592,15.08836924,.0001285,53.2147,277.3874,91.2801,268.8338,0,U,53988,999,19943,.20597281E-4,.4E-6,0
STARLINK-5118,2022-125AD,2026-05-14T16:03:29.607552,15.08832191,.00014408,53.2197,267.8632,106.4994,253.6157,0,U,53991,999,19955,.5716311E-5,-.197E-5,0
STARLINK-5108,2022-125AE,2026-05-14T19:18:14.705568,15.08839625,.00012375,53.2176,277.3192,91.9974,268.1160,0,U,53992,999,19943,.35190007E-4,.272E-5,0
